0 BREEZE-M DEB (TANK)
1 36501U 10010C   13279.92079712  .00002493  00000-0  57662-3 0   950
2 36501 049.6764 060.3514 4940264 222.1049 336.0992 05.69286974 73223
0 BREEZE-M DEB (TANK)
1 36501U 10010C   13280.97674973  .00002900  00000-0  67218-3 0   969
2 36501 049.6764 059.4293 4940327 222.8866 340.2081 05.69291367 73284
0 BREEZE-M DEB (TANK)
1 36501U 10010C   13282.76980591  .00002929  00000-0  67366-3 0   970
2 36501 049.6765 057.8633 4940404 224.2127 055.0094 05.69307678 73386
0 BREEZE-M DEB (TANK)
1 36501U 10010C   13283.96256668  .00003409  00000-0  76862-3 0   980
2 36501 049.6766 056.8216 4940472 225.0951 339.5809 05.69316619 73459
0 BREEZE-M DEB (TANK)
1 36501U 10010C   13285.76029834  .00003464  00000-0  76154-3 0   999
2 36501 049.6766 055.2511 4940585 226.4254 064.1242 05.69328025 73553
0 BREEZE-M DEB (TANK)
1 36501U 10010C   13286.94828966  .00003575  00000-0  77831-3 0  1002
2 36501 049.6766 054.2134 4940655 227.3046 339.0145 05.69336279 73624
0 BREEZE-M DEB (TANK)
1 36501U 10010C   13288.52042441  .00004075  00000-0  88868-3 0  1013
2 36501 049.6769 052.8399 4940707 228.4673 321.2916 05.69350779 73710
0 BREEZE-M DEB (TANK)
1 36501U 10010C   13289.84495568  .00003905  00000-0  85953-3 0  1025
2 36501 049.6770 051.6826 4940771 229.4468 156.1467 05.69360111 73782
0 BREEZE-M DEB (TANK)
1 36501U 10010C   13291.50533484  .00003813  00000-0  85304-3 0  1030
2 36501 049.6770 050.2315 4940868 230.6744 319.4412 05.69373554 73888
0 BREEZE-M DEB (TANK)
1 36501U 10010C   13292.74420932  .00004319  00000-0  97178-3 0  1045
2 36501 049.6770 049.1488 4940952 231.5909 338.8356 05.69382249 73954
0 BREEZE-M DEB (TANK)
1 36501U 10010C   13293.88132102  .00003944  00000-0  89398-3 0  1059
2 36501 049.6773 048.1552 4940987 232.4315 149.6569 05.69397779 74013
